OBJECT_NAME,OBJECT_ID,EPOCH,MEAN_MOTION,ECCENTRICITY,INCLINATION,RA_OF_ASC_NODE,ARG_OF_PERICENTER,MEAN_ANOMALY,EPHEMERIS_TYPE,CLASSIFICATION_TYPE,NORAD_CAT_ID,ELEMENT_SET_NO,REV_AT_EPOCH,BSTAR,MEAN_MOTION_DOT,MEAN_MOTION_DDOT
ALOS-2,2014-029A,2026-07-12T07:09:58.341024,14.79469856,.00015783,97.9225,290.1033,94.5148,265.6244,0,U,39766,999,65529,.14291572E-3,.1016E-4,0
KAZEOSAT 2,2014-033A,2026-07-12T06:54:29.901312,14.85495464,.00072285,97.5402,31.5728,231.0895,128.9677,0,U,40010,999,65268,-.2328466E-4,-.251E-5,0
HODOYOSHI-4,2014-033B,2026-07-12T05:58:03.952704,14.88182070,.00224831,97.5459,16.8632,219.9350,140.0214,0,U,40011,999,65253,.43660764E-4,.352E-5,0
DEIMOS-2,2014-033D,2026-07-12T07:16:36.848064,14.93789175,.00009034,97.5804,66.9067,85.6902,274.4422,0,U,40013,999,64147,.10170864E-4,.54E-6,0
HODOYOSHI-3,2014-033F,2026-07-11T21:46:16.385376,14.85433515,.0031297,97.6441,354.9565,273.2549,86.5086,0,U,40015,999,65129,.67894E-4,.537E-5,0
SPOT 7,2014-034A,2026-07-12T07:36:17.293248,14.60979066,.00015726,98.0623,255.1597,97.0348,263.1032,0,U,40053,999,64080,.30152769E-4,.102E-5,0
SKYSAT-B,2014-037D,2026-07-11T20:53:17.414880,14.88087332,.00053095,98.3853,153.2453,183.3680,176.7500,0,U,40072,999,64963,.79264116E-4,.667E-5,0
WORLDVIEW-3 (WV-3),2014-048A,2026-07-12T07:11:50.286912,14.85061455,.00010783,97.8558,267.7854,160.2352,199.8905,0,U,40115,999,64563,.53273437E-4,.402E-5,0
GAOFEN-2,2014-049A,2026-07-12T07:28:16.118688,14.80923815,.00080568,98.0103,257.4933,142.8198,217.3573,0,U,40118,999,64295,-.22340907E-4,-.226E-5,0
YAOGAN-21,2014-053A,2026-07-12T06:25:50.435040,15.26731985,.00081257,97.1466,232.4305,18.3287,341.8243,0,U,40143,999,65878,.9825132E-4,.2515E-4,0
YAOGAN-22,2014-063A,2026-07-11T12:31:42.678336,13.15531599,.00068057,100.7756,344.2025,132.8949,227.2735,0,U,40275,999,56301,.74489854E-4,-.19E-6,0
ASNARO,2014-070A,2026-07-12T07:31:04.649664,15.19801646,.00069336,97.3450,268.7518,96.8493,263.3531,0,U,40298,999,64782,.17054953E-3,.3587E-4,0
YAOGAN-24,2014-072A,2026-07-12T07:09:15.687936,14.76117107,.00143876,98.1513,330.8497,178.7831,181.3415,0,U,40310,999,62742,.73917475E-4,.458E-5,0
CBERS 4,2014-079A,2026-07-12T06:27:43.752960,14.35515540,.00009116,98.3525,249.3124,52.6166,307.5103,0,U,40336,999,60755,.30836203E-4,.46E-6,0
YAOGAN-26,2014-088A,2026-07-12T06:45:33.973344,15.48362084,.0002411,97.0643,192.9205,357.9600,2.1641,0,U,40362,999,64158,.25862523E-3,.13605E-3,0
SMAP,2015-003A,2026-07-12T04:10:18.768576,14.63387617,.00015759,98.1282,199.9150,95.9601,264.1780,0,U,40376,999,61127,.51108387E-4,.217E-5,0
KOMPSAT-3A,2015-014A,2026-07-12T06:43:41.159136,15.55302183,.00565306,97.6885,186.5015,85.8498,274.9214,0,U,40536,999,62571,.28886776E-3,.20944E-3,0
SENTINEL-2A,2015-028A,2026-07-12T07:40:12.156096,14.30813954,.00012741,98.5682,267.8136,95.7021,264.4307,0,U,40697,999,57732,.37695646E-4,.55E-6,0
GAOFEN-8,2015-030A,2026-07-12T07:46:20.671104,15.46864169,.00100159,97.6899,28.2184,104.9462,255.2896,0,U,40701,999,61533,.1476983E-3,.7334E-4,0
CARBONITE 1 (CBNT-1),2015-032D,2026-07-12T08:08:19.230144,14.83663984,.001356,97.6520,10.3549,206.8389,153.2126,0,U,40718,999,59307,.13995236E-3,.1106E-4,0
YAOGAN-27,2015-040A,2026-07-12T06:25:08.899968,13.16070603,.00084422,100.1162,178.5628,151.5601,208.5975,0,U,40878,999,52096,-.21165456E-3,-.123E-5,0
GAOFEN-9 01,2015-047A,2026-07-12T07:10:18.294240,14.82931719,.00286129,97.6271,227.8516,59.5767,300.8269,0,U,40894,999,58391,.71982432E-4,.537E-5,0
YAOGAN-28,2015-064A,2026-07-12T08:17:54.431232,15.27736919,.00120713,97.3100,331.1039,101.7361,258.5234,0,U,41026,999,59452,.15528345E-3,.4142E-4,0
YAOGAN-29,2015-069A,2026-07-12T06:37:06.235968,14.83103860,.00010078,98.0027,221.9469,15.2898,344.8345,0,U,41038,999,57434,-.16625552E-4,-.189E-5,0
KENT RIDGE 1,2015-077B,2026-07-11T21:58:50.952000,15.23273349,.0008276,14.9799,82.0545,228.7650,131.1958,0,U,41167,999,58487,.79609E-4,.2707E-4,0
GAOFEN-4,2015-083A,2026-07-12T07:10:07.591008,1.00268308,.00044772,0.4185,83.8284,121.4287,298.1431,0,U,41194,999,3878,0,-.333E-5,0
JASON-3,2016-002A,2026-07-12T07:45:20.153088,12.87628474,.00082116,66.0416,72.9908,271.2127,88.7951,0,U,41240,999,49048,.93743445E-4,-.39E-6,0
SENTINEL-3A,2016-011A,2026-07-12T07:45:12.125664,14.26739260,.00013752,98.6238,260.3443,91.0370,269.0968,0,U,41335,999,54164,.35982391E-4,.43E-6,0
ZIYUAN 3-02 (ZY 3-02),2016-033A,2026-07-12T05:59:56.779872,15.21417051,.00137607,97.3832,268.5422,195.3244,164.7577,0,U,41556,999,56179,.15076654E-3,.3322E-4,0
CARTOSAT-2C,2016-040A,2026-07-12T08:27:36.220320,15.19252799,.00097751,97.4480,252.9820,54.0923,306.1217,0,U,41599,999,55753,.14197382E-3,.2927E-4,0
