ALOS-2                  
1 39766U 14029A   26193.29859191  .00001016  00000+0  14292-3 0  9990
2 39766  97.9225 290.1033 0001578  94.5148 265.6244 14.79469856655292
KAZEOSAT 2              
1 40010U 14033A   26193.28784608 -.00000251  00000+0 -23285-4 0  9993
2 40010  97.5402  31.5728 0007228 231.0895 128.9677 14.85495464652684
HODOYOSHI-4             
1 40011U 14033B   26193.24865686  .00000352  00000+0  43661-4 0  9996
2 40011  97.5459  16.8632 0022483 219.9350 140.0214 14.88182070652533
DEIMOS-2                
1 40013U 14033D   26193.30320426  .00000054  00000+0  10171-4 0  9992
2 40013  97.5804  66.9067 0000903  85.6902 274.4422 14.93789175641470
HODOYOSHI-3             
1 40015U 14033F   26192.90713409  .00000537  00000+0  67894-4 0  9996
2 40015  97.6441 354.9565 0031297 273.2549  86.5086 14.85433515651299
SPOT 7                  
1 40053U 14034A   26193.31686682  .00000102  00000+0  30153-4 0  9993
2 40053  98.0623 255.1597 0001572  97.0348 263.1032 14.60979066640805
SKYSAT-B                
1 40072U 14037D   26192.87034045  .00000667  00000+0  79264-4 0  9999
2 40072  98.3853 153.2453 0005309 183.3680 176.7500 14.88087332649638
WORLDVIEW-3 (WV-3)      
1 40115U 14048A   26193.29988758  .00000402  00000+0  53273-4 0  9994
2 40115  97.8558 267.7854 0001078 160.2352 199.8905 14.85061455645633
GAOFEN-2                
1 40118U 14049A   26193.31129767 -.00000226  00000+0 -22341-4 0  9996
2 40118  98.0103 257.4933 0008056 142.8198 217.3573 14.80923815642957
YAOGAN-21               
1 40143U 14053A   26193.26794485  .00002515  00000+0  98251-4 0  9992
2 40143  97.1466 232.4305 0008125  18.3287 341.8243 15.26731985658787
YAOGAN-22               
1 40275U 14063A   26192.52202174 -.00000019  00000+0  74490-4 0  9993
2 40275 100.7756 344.2025 0006805 132.8949 227.2735 13.15531599563016
ASNARO                  
1 40298U 14070A   26193.31324826  .00003587  00000+0  17055-3 0  9998
2 40298  97.3450 268.7518 0006933  96.8493 263.3531 15.19801646647821
YAOGAN-24               
1 40310U 14072A   26193.29809824  .00000458  00000+0  73917-4 0  9992
2 40310  98.1513 330.8497 0014387 178.7831 181.3415 14.76117107627428
CBERS 4                 
1 40336U 14079A   26193.26925640  .00000046  00000+0  30836-4 0  9995
2 40336  98.3525 249.3124 0000911  52.6166 307.5103 14.35515540607557
YAOGAN-26               
1 40362U 14088A   26193.28164321  .00013605  00000+0  25863-3 0  9995
2 40362  97.0643 192.9205 0002411 357.9600   2.1641 15.48362084641581
SMAP                    
1 40376U 15003A   26193.17382834  .00000217  00000+0  51108-4 0  9994
2 40376  98.1282 199.9150 0001575  95.9601 264.1780 14.63387617611275
KOMPSAT-3A              
1 40536U 15014A   26193.28033749  .00020944  00000+0  28887-3 0  9990
2 40536  97.6885 186.5015 0056530  85.8498 274.9214 15.55302183625713
SENTINEL-2A             
1 40697U 15028A   26193.31958514  .00000055  00000+0  37696-4 0  9993
2 40697  98.5682 267.8136 0001274  95.7021 264.4307 14.30813954577325
GAOFEN-8                
1 40701U 15030A   26193.32385036  .00007334  00000+0  14770-3 0  9990
2 40701  97.6899  28.2184 0010015 104.9462 255.2896 15.46864169615335
CARBONITE 1 (CBNT-1)    
1 40718U 15032D   26193.33911146  .00001106  00000+0  13995-3 0  9997
2 40718  97.6520  10.3549 0013560 206.8389 153.2126 14.83663984593070
YAOGAN-27               
1 40878U 15040A   26193.26746412 -.00000123  00000+0 -21165-3 0  9995
2 40878 100.1162 178.5628 0008442 151.5601 208.5975 13.16070603520969
GAOFEN-9 01             
1 40894U 15047A   26193.29882285  .00000537  00000+0  71982-4 0  9992
2 40894  97.6271 227.8516 0028612  59.5767 300.8269 14.82931719583917
YAOGAN-28               
1 41026U 15064A   26193.34576888  .00004142  00000+0  15528-3 0  9993
2 41026  97.3100 331.1039 0012071 101.7361 258.5234 15.27736919594529
YAOGAN-29               
1 41038U 15069A   26193.27576662 -.00000189  00000+0 -16626-4 0  9993
2 41038  98.0027 221.9469 0001007  15.2898 344.8345 14.83103860574346
KENT RIDGE 1            
1 41167U 15077B   26192.91586750  .00002707  00000+0  79609-4 0  9990
2 41167  14.9799  82.0545 0008276 228.7650 131.1958 15.23273349584876
GAOFEN-4                
1 41194U 15083A   26193.29869897 -.00000333  00000+0  00000+0 0  9993
2 41194   0.4185  83.8284 0004477 121.4287 298.1431  1.00268308 38781
JASON-3                 
1 41240U 16002A   26193.32314992 -.00000039  00000+0  93743-4 0  9996
2 41240  66.0416  72.9908 0008211 271.2127  88.7951 12.87628474490487
SENTINEL-3A             
1 41335U 16011A   26193.32305701  .00000043  00000+0  35982-4 0  9994
2 41335  98.6238 260.3443 0001375  91.0370 269.0968 14.26739260541642
ZIYUAN 3-02 (ZY 3-02)   
1 41556U 16033A   26193.24996273  .00003322  00000+0  15077-3 0  9999
2 41556  97.3832 268.5422 0013760 195.3244 164.7577 15.21417051561791
CARTOSAT-2C             
1 41599U 16040A   26193.35250255  .00002927  00000+0  14197-3 0  9991
2 41599  97.4480 252.9820 0009775  54.0923 306.1217 15.19252799557536
